GLOBALSTAR M063         
1 26081U 00008A   25177.45362374 -.00000095  00000+0 -18831-3 0  9990
2 26081  51.9958  87.1670 0004836 341.8654 190.0211 11.86174847158675
GLOBALSTAR M062         
1 26082U 00008B   25177.76403718 -.00000027  00000+0  51201-3 0  9995
2 26082  51.9857  67.6192 0007257 126.3085 275.8230 12.43468430497813
GLOBALSTAR M065         
1 31571U 07020A   25177.32333677 -.00000077  00000+0  14978-3 0  9998
2 31571  51.9865 198.4606 0010011 329.1176  44.9692 12.62009695834569
GLOBALSTAR M069         
1 31573U 07020C   25177.42082984 -.00000087  00000+0  48115-4 0  9995
2 31573  51.9919 179.0951 0001177 182.4936 328.3451 12.23446784835256
GLOBALSTAR M072         
1 31574U 07020D   25177.74993788 -.00000082  00000+0  26978-4 0  9992
2 31574  51.9951 326.5117 0000848  30.5661  76.8882 11.91649792832605
GLOBALSTAR M071         
1 31576U 07020F   25177.38898008 -.00000021  00000+0  68852-3 0  9992
2 31576  52.0029 205.0441 0000795 141.8490 232.0250 12.18255505496069
